QIANFAN-18              
1 60396U 24140T   26064.73882825  .00000120  00000+0  16680-3 0  9992
2 60396  88.9720 290.3877 0013124 314.6784  45.3297 13.51003733 78731
QIANFAN-19              
1 61552U 24185A   26064.78555211  .00000689  00000+0  35284-3 0  9998
2 61552  88.9759  68.4056 0008615  50.5642 309.6306 14.14387485 81403
QIANFAN-20              
1 61553U 24185B   26064.78413332  .00000664  00000+0  37623-3 0  9998
2 61553  88.9756  68.8135 0007889  82.3096 277.8983 14.08933838 81185
QIANFAN-21              
1 61554U 24185C   26064.81642326  .00000866  00000+0  38003-3 0  9997
2 61554  88.9677  67.2288 0013024  92.3557 267.9126 14.22728609 81780
QIANFAN-22              
1 61555U 24185D   26064.79424507  .00000333  00000+0  27629-3 0  9995
2 61555  88.9740  70.1292 0008611  99.6399 260.5745 13.86338967 80441
QIANFAN-23              
1 61556U 24185E   26064.78515793  .00000768  00000+0  37934-3 0  9995
2 61556  88.9751  68.1763 0009555  58.4291 301.7829 14.16392707 81501
QIANFAN-24              
1 61557U 24185F   26064.67880605  .00001054  00000+0  45345-3 0  9995
2 61557  88.9735  67.4579 0010600  38.8169 321.3783 14.23932588 81827
QIANFAN-25              
1 61558U 24185G   26064.77916124  .00000590  00000+0  35173-3 0  9995
2 61558  88.9748  68.7723 0011914  65.0779 295.1640 14.05995378 81179
QIANFAN-26              
1 61559U 24185H   26064.75527428  .00000298  00000+0  28496-3 0  9994
2 61559  88.9746  70.7738 0007695 112.4112 247.7870 13.77861512 80106
QIANFAN-27              
1 61560U 24185J   26064.68009887  .00000723  00000+0  28864-3 0  9994
2 61560  88.9748  67.2007 0008650  32.2089 327.9632 14.27443539 81990
QIANFAN-28              
1 61561U 24185K   26064.75965282  .00001206  00000+0  47845-3 0  9990
2 61561  88.9764  67.1985 0008249  33.0980 327.0730 14.28213237 82022
QIANFAN-29              
1 61562U 24185L   26064.76226662  .00000208  00000+0  30236-3 0  9991
2 61562  88.9718  72.7148 0010387 159.3264 200.8310 13.51043695 79008
QIANFAN-30              
1 61563U 24185M   26064.80003132  .00000206  00000+0  30562-3 0  9992
2 61563  88.9738  72.2681 0008688 143.4866 216.6879 13.50018785 79276
QIANFAN-31              
1 61564U 24185N   26064.72276940  .00000231  00000+0  30283-3 0  9991
2 61564  88.9723  71.9459 0008345 135.2575 224.9255 13.58003135 79424
QIANFAN-32              
1 61565U 24185P   26064.79664634  .00000160  00000+0  22989-3 0  9995
2 61565  88.9782  72.4281 0009734 172.1748 187.9556 13.50763991 79252
QIANFAN-33              
1 61566U 24185Q   26064.80066329  .00000536  00000+0  37736-3 0  9998
2 61566  88.9737  69.5293 0009294  73.1684 287.0511 13.96623253 80759
QIANFAN-34              
1 61567U 24185R   26064.78207298  .00000591  00000+0  37612-3 0  9992
2 61567  88.9713  68.9846 0008303  76.7803 283.4303 14.02383382 80992
